HST                     
1 20580U 90037B   24224.73595425  .00015982  00000+0  74197-3 0  9993
2 20580  28.4698 332.7457 0001727 288.9299  71.1107 15.18576051685486
